SITRO-AIS-58            
1 67258U 25313L   26023.94602378  .00018231  00000+0  83973-3 0  9991
2 67258  97.4085 100.9358 0017165 146.4919 213.7406 15.20212369  4012
2025-313M               
1 67259U 25313M   26023.94146827  .00023536  00000+0  10714-2 0  9990
2 67259  97.4127 100.9680 0016297 145.0921 215.1387 15.20577394  4017
SITRO-AIS-60            
1 67260U 25313N   26023.94420601  .00014509  00000+0  66898-3 0  9992
2 67260  97.4093 100.9413 0016642 146.6635 213.5651 15.20237108  4010
2025-313P               
1 67261U 25313P   26023.93877525  .00033168  00000+0  14936-2 0  9990
2 67261  97.4127 100.9721 0015999 145.3260 214.9022 15.20881660  4010
2025-313Q               
1 67262U 25313Q   26023.94154625  .00021204  00000+0  96738-3 0  9990
2 67262  97.4096 100.9456 0016211 147.1373 213.0874 15.20524109  4011
DCS-1                   
1 67263U 25313R   26023.94220912  .00018404  00000+0  84262-3 0  9991
2 67263  97.4108 100.9606 0016209 146.2064 214.0208 15.20433104  4013
2025-313S               
1 67264U 25313S   26023.94387783  .00012594  00000+0  58151-3 0  9994
2 67264  97.4178 100.9651 0016277 151.0771 209.1370 15.20226941  4019
SITRO-TD-4              
1 67265U 25313T   26023.94173444  .00017863  00000+0  81762-3 0  9990
2 67265  97.4087 100.9538 0016145 146.9946 213.2301 15.20448616  4019
SITRO-AIS-65            
1 67266U 25313U   26023.94161759  .00017242  00000+0  78916-3 0  9995
2 67266  97.4116 100.9629 0016068 145.7434 214.4841 15.20460502  4017
2025-313V               
1 67267U 25313V   26023.94074154  .00020361  00000+0  92861-3 0  9999
2 67267  97.4097 100.9494 0015226 151.1736 209.0344 15.20559674  4014
ZORKY-2M 7              
1 67268U 25313W   26023.94219588  .00014066  00000+0  64605-3 0  9992
2 67268  97.4097 100.9458 0016259 146.5051 213.7216 15.20382828  4015
2025-313X               
1 67269U 25313X   26023.93979220  .00024859  00000+0  11275-2 0  9993
2 67269  97.4123 100.9677 0015940 145.0742 215.1543 15.20696595  4014
