CCSDS_OMM_VERS = 2.0
CREATION_DATE  = 
ORIGINATOR     = 

OBJECT_NAME    = SITRO-AIS-58
OBJECT_ID      = 2025-313L
CENTER_NAME    = EARTH
REF_FRAME      = TEME
TIME_SYSTEM    = UTC
MEAN_ELEMENT_THEORY = SGP/SGP4

EPOCH          = 2026-01-23T22:42:16.454592
MEAN_MOTION    = 15.20212369
ECCENTRICITY   = .00171659
INCLINATION    = 97.4085
RA_OF_ASC_NODE = 100.9358
ARG_OF_PERICENTER = 146.4919
MEAN_ANOMALY   = 213.7406

EPHEMERIS_TYPE = 0
CLASSIFICATION_TYPE = U
NORAD_CAT_ID   = 67258
ELEMENT_SET_NO = 999
REV_AT_EPOCH   = 401
BSTAR          = .83972505E-3
MEAN_MOTION_DOT = .18231E-3
MEAN_MOTION_DDOT = 0

CCSDS_OMM_VERS = 2.0
CREATION_DATE  = 
ORIGINATOR     = 

OBJECT_NAME    = 2025-313M
OBJECT_ID      = 2025-313M
CENTER_NAME    = EARTH
REF_FRAME      = TEME
TIME_SYSTEM    = UTC
MEAN_ELEMENT_THEORY = SGP/SGP4

EPOCH          = 2026-01-23T22:35:42.858528
MEAN_MOTION    = 15.20577394
ECCENTRICITY   = .00162973
INCLINATION    = 97.4127
RA_OF_ASC_NODE = 100.9680
ARG_OF_PERICENTER = 145.0921
MEAN_ANOMALY   = 215.1387

EPHEMERIS_TYPE = 0
CLASSIFICATION_TYPE = U
NORAD_CAT_ID   = 67259
ELEMENT_SET_NO = 999
REV_AT_EPOCH   = 401
BSTAR          = .10714242E-2
MEAN_MOTION_DOT = .23536E-3
MEAN_MOTION_DDOT = 0

CCSDS_OMM_VERS = 2.0
CREATION_DATE  = 
ORIGINATOR     = 

OBJECT_NAME    = SITRO-AIS-60
OBJECT_ID      = 2025-313N
CENTER_NAME    = EARTH
REF_FRAME      = TEME
TIME_SYSTEM    = UTC
MEAN_ELEMENT_THEORY = SGP/SGP4

EPOCH          = 2026-01-23T22:39:39.399264
MEAN_MOTION    = 15.20237108
ECCENTRICITY   = .00166421
INCLINATION    = 97.4093
RA_OF_ASC_NODE = 100.9413
ARG_OF_PERICENTER = 146.6635
MEAN_ANOMALY   = 213.5651

EPHEMERIS_TYPE = 0
CLASSIFICATION_TYPE = U
NORAD_CAT_ID   = 67260
ELEMENT_SET_NO = 999
REV_AT_EPOCH   = 401
BSTAR          = .66897771E-3
MEAN_MOTION_DOT = .14509E-3
MEAN_MOTION_DDOT = 0

CCSDS_OMM_VERS = 2.0
CREATION_DATE  = 
ORIGINATOR     = 

OBJECT_NAME    = 2025-313P
OBJECT_ID      = 2025-313P
CENTER_NAME    = EARTH
REF_FRAME      = TEME
TIME_SYSTEM    = UTC
MEAN_ELEMENT_THEORY = SGP/SGP4

EPOCH          = 2026-01-23T22:31:50.181600
MEAN_MOTION    = 15.20881660
ECCENTRICITY   = .00159999
INCLINATION    = 97.4127
RA_OF_ASC_NODE = 100.9721
ARG_OF_PERICENTER = 145.3260
MEAN_ANOMALY   = 214.9022

EPHEMERIS_TYPE = 0
CLASSIFICATION_TYPE = U
NORAD_CAT_ID   = 67261
ELEMENT_SET_NO = 999
REV_AT_EPOCH   = 401
BSTAR          = .14935674E-2
MEAN_MOTION_DOT = .33168E-3
MEAN_MOTION_DDOT = 0

CCSDS_OMM_VERS = 2.0
CREATION_DATE  = 
ORIGINATOR     = 

OBJECT_NAME    = 2025-313Q
OBJECT_ID      = 2025-313Q
CENTER_NAME    = EARTH
REF_FRAME      = TEME
TIME_SYSTEM    = UTC
MEAN_ELEMENT_THEORY = SGP/SGP4

EPOCH          = 2026-01-23T22:35:49.596000
MEAN_MOTION    = 15.20524109
ECCENTRICITY   = .00162112
INCLINATION    = 97.4096
RA_OF_ASC_NODE = 100.9456
ARG_OF_PERICENTER = 147.1373
MEAN_ANOMALY   = 213.0874

EPHEMERIS_TYPE = 0
CLASSIFICATION_TYPE = U
NORAD_CAT_ID   = 67262
ELEMENT_SET_NO = 999
REV_AT_EPOCH   = 401
BSTAR          = .96738472E-3
MEAN_MOTION_DOT = .21204E-3
MEAN_MOTION_DDOT = 0

CCSDS_OMM_VERS = 2.0
CREATION_DATE  = 
ORIGINATOR     = 

OBJECT_NAME    = DCS-1
OBJECT_ID      = 2025-313R
CENTER_NAME    = EARTH
REF_FRAME      = TEME
TIME_SYSTEM    = UTC
MEAN_ELEMENT_THEORY = SGP/SGP4

EPOCH          = 2026-01-23T22:36:46.867968
MEAN_MOTION    = 15.20433104
ECCENTRICITY   = .00162096
INCLINATION    = 97.4108
RA_OF_ASC_NODE = 100.9606
ARG_OF_PERICENTER = 146.2064
MEAN_ANOMALY   = 214.0208

EPHEMERIS_TYPE = 0
CLASSIFICATION_TYPE = U
NORAD_CAT_ID   = 67263
ELEMENT_SET_NO = 999
REV_AT_EPOCH   = 401
BSTAR          = .84261814E-3
MEAN_MOTION_DOT = .18404E-3
MEAN_MOTION_DDOT = 0

CCSDS_OMM_VERS = 2.0
CREATION_DATE  = 
ORIGINATOR     = 

OBJECT_NAME    = 2025-313S
OBJECT_ID      = 2025-313S
CENTER_NAME    = EARTH
REF_FRAME      = TEME
TIME_SYSTEM    = UTC
MEAN_ELEMENT_THEORY = SGP/SGP4

EPOCH          = 2026-01-23T22:39:11.044512
MEAN_MOTION    = 15.20226941
ECCENTRICITY   = .00162771
INCLINATION    = 97.4178
RA_OF_ASC_NODE = 100.9651
ARG_OF_PERICENTER = 151.0771
MEAN_ANOMALY   = 209.1370

EPHEMERIS_TYPE = 0
CLASSIFICATION_TYPE = U
NORAD_CAT_ID   = 67264
ELEMENT_SET_NO = 999
REV_AT_EPOCH   = 401
BSTAR          = .58151189E-3
MEAN_MOTION_DOT = .12594E-3
MEAN_MOTION_DDOT = 0

CCSDS_OMM_VERS = 2.0
CREATION_DATE  = 
ORIGINATOR     = 

OBJECT_NAME    = SITRO-TD-4
OBJECT_ID      = 2025-313T
CENTER_NAME    = EARTH
REF_FRAME      = TEME
TIME_SYSTEM    = UTC
MEAN_ELEMENT_THEORY = SGP/SGP4

EPOCH          = 2026-01-23T22:36:05.855616
MEAN_MOTION    = 15.20448616
ECCENTRICITY   = .00161457
INCLINATION    = 97.4087
RA_OF_ASC_NODE = 100.9538
ARG_OF_PERICENTER = 146.9946
MEAN_ANOMALY   = 213.2301

EPHEMERIS_TYPE = 0
CLASSIFICATION_TYPE = U
NORAD_CAT_ID   = 67265
ELEMENT_SET_NO = 999
REV_AT_EPOCH   = 401
BSTAR          = .8176187E-3
MEAN_MOTION_DOT = .17863E-3
MEAN_MOTION_DDOT = 0

CCSDS_OMM_VERS = 2.0
CREATION_DATE  = 
ORIGINATOR     = 

OBJECT_NAME    = SITRO-AIS-65
OBJECT_ID      = 2025-313U
CENTER_NAME    = EARTH
REF_FRAME      = TEME
TIME_SYSTEM    = UTC
MEAN_ELEMENT_THEORY = SGP/SGP4

EPOCH          = 2026-01-23T22:35:55.759776
MEAN_MOTION    = 15.20460502
ECCENTRICITY   = .00160681
INCLINATION    = 97.4116
RA_OF_ASC_NODE = 100.9629
ARG_OF_PERICENTER = 145.7434
MEAN_ANOMALY   = 214.4841

EPHEMERIS_TYPE = 0
CLASSIFICATION_TYPE = U
NORAD_CAT_ID   = 67266
ELEMENT_SET_NO = 999
REV_AT_EPOCH   = 401
BSTAR          = .78915712E-3
MEAN_MOTION_DOT = .17242E-3
MEAN_MOTION_DDOT = 0

CCSDS_OMM_VERS = 2.0
CREATION_DATE  = 
ORIGINATOR     = 

OBJECT_NAME    = 2025-313V
OBJECT_ID      = 2025-313V
CENTER_NAME    = EARTH
REF_FRAME      = TEME
TIME_SYSTEM    = UTC
MEAN_ELEMENT_THEORY = SGP/SGP4

EPOCH          = 2026-01-23T22:34:40.069056
MEAN_MOTION    = 15.20559674
ECCENTRICITY   = .00152264
INCLINATION    = 97.4097
RA_OF_ASC_NODE = 100.9494
ARG_OF_PERICENTER = 151.1736
MEAN_ANOMALY   = 209.0344

EPHEMERIS_TYPE = 0
CLASSIFICATION_TYPE = U
NORAD_CAT_ID   = 67267
ELEMENT_SET_NO = 999
REV_AT_EPOCH   = 401
BSTAR          = .92860905E-3
MEAN_MOTION_DOT = .20361E-3
MEAN_MOTION_DDOT = 0

CCSDS_OMM_VERS = 2.0
CREATION_DATE  = 
ORIGINATOR     = 

OBJECT_NAME    = ZORKY-2M 7
OBJECT_ID      = 2025-313W
CENTER_NAME    = EARTH
REF_FRAME      = TEME
TIME_SYSTEM    = UTC
MEAN_ELEMENT_THEORY = SGP/SGP4

EPOCH          = 2026-01-23T22:36:45.724032
MEAN_MOTION    = 15.20382828
ECCENTRICITY   = .00162597
INCLINATION    = 97.4097
RA_OF_ASC_NODE = 100.9458
ARG_OF_PERICENTER = 146.5051
MEAN_ANOMALY   = 213.7216

EPHEMERIS_TYPE = 0
CLASSIFICATION_TYPE = U
NORAD_CAT_ID   = 67268
ELEMENT_SET_NO = 999
REV_AT_EPOCH   = 401
BSTAR          = .64604686E-3
MEAN_MOTION_DOT = .14066E-3
MEAN_MOTION_DDOT = 0

CCSDS_OMM_VERS = 2.0
CREATION_DATE  = 
ORIGINATOR     = 

OBJECT_NAME    = 2025-313X
OBJECT_ID      = 2025-313X
CENTER_NAME    = EARTH
REF_FRAME      = TEME
TIME_SYSTEM    = UTC
MEAN_ELEMENT_THEORY = SGP/SGP4

EPOCH          = 2026-01-23T22:33:18.046080
MEAN_MOTION    = 15.20696595
ECCENTRICITY   = .00159409
INCLINATION    = 97.4123
RA_OF_ASC_NODE = 100.9677
ARG_OF_PERICENTER = 145.0742
MEAN_ANOMALY   = 215.1543

EPHEMERIS_TYPE = 0
CLASSIFICATION_TYPE = U
NORAD_CAT_ID   = 67269
ELEMENT_SET_NO = 999
REV_AT_EPOCH   = 401
BSTAR          = .11275024E-2
MEAN_MOTION_DOT = .24859E-3
MEAN_MOTION_DDOT = 0

